[{"OBJECT_NAME":"STARLINK-3609","OBJECT_ID":"2022-017AS","EPOCH":"2025-08-08T00:00:25.392096","MEAN_MOTION":15.08840705,"ECCENTRICITY":0.0001048,"INCLINATION":53.2161,"RA_OF_ASC_NODE":218.4112,"ARG_OF_PERICENTER":78.7156,"MEAN_ANOMALY":281.3954,"EPHEMERIS_TYPE":0,"CLASSIFICATION_TYPE":"U","NORAD_CAT_ID":51808,"ELEMENT_SET_NO":999,"REV_AT_EPOCH":19180,"BSTAR":4.0973e-5,"MEAN_MOTION_DOT":3.64e-6,"MEAN_MOTION_DDOT":0},{"OBJECT_NAME":"STARLINK-3607","OBJECT_ID":"2022-017AT","EPOCH":"2025-08-08T00:11:00.907296","MEAN_MOTION":15.088381,"ECCENTRICITY":0.0001167,"INCLINATION":53.2164,"RA_OF_ASC_NODE":218.3389,"ARG_OF_PERICENTER":85.0714,"MEAN_ANOMALY":275.0412,"EPHEMERIS_TYPE":0,"CLASSIFICATION_TYPE":"U","NORAD_CAT_ID":51809,"ELEMENT_SET_NO":999,"REV_AT_EPOCH":19180,"BSTAR":1.9038e-5,"MEAN_MOTION_DOT":1.5e-7,"MEAN_MOTION_DDOT":0},{"OBJECT_NAME":"STARLINK-3613","OBJECT_ID":"2022-017AU","EPOCH":"2025-08-07T06:00:45.076608","MEAN_MOTION":15.08839297,"ECCENTRICITY":0.0001143,"INCLINATION":53.2162,"RA_OF_ASC_NODE":211.9981,"ARG_OF_PERICENTER":82.4408,"MEAN_ANOMALY":277.6714,"EPHEMERIS_TYPE":0,"CLASSIFICATION_TYPE":"U","NORAD_CAT_ID":51810,"ELEMENT_SET_NO":999,"REV_AT_EPOCH":19170,"BSTAR":9.3589e-7,"MEAN_MOTION_DOT":-2.73e-6,"MEAN_MOTION_DDOT":0},{"OBJECT_NAME":"STARLINK-3569","OBJECT_ID":"2022-017AV","EPOCH":"2025-08-08T00:05:42.957024","MEAN_MOTION":15.08832619,"ECCENTRICITY":7.98e-5,"INCLINATION":53.2159,"RA_OF_ASC_NODE":218.3965,"ARG_OF_PERICENTER":67.0131,"MEAN_ANOMALY":293.0945,"EPHEMERIS_TYPE":0,"CLASSIFICATION_TYPE":"U","NORAD_CAT_ID":51811,"ELEMENT_SET_NO":999,"REV_AT_EPOCH":19180,"BSTAR":0.00015601,"MEAN_MOTION_DOT":2.196e-5,"MEAN_MOTION_DDOT":0},{"OBJECT_NAME":"STARLINK-3610","OBJECT_ID":"2022-017AW","EPOCH":"2025-08-07T09:59:10.909536","MEAN_MOTION":15.0883699,"ECCENTRICITY":0.0001235,"INCLINATION":53.2159,"RA_OF_ASC_NODE":211.0323,"ARG_OF_PERICENTER":67.6418,"MEAN_ANOMALY":292.4705,"EPHEMERIS_TYPE":0,"CLASSIFICATION_TYPE":"U","NORAD_CAT_ID":51812,"ELEMENT_SET_NO":999,"REV_AT_EPOCH":19173,"BSTAR":-5.1196e-5,"MEAN_MOTION_DOT":-1.102e-5,"MEAN_MOTION_DDOT":0},{"OBJECT_NAME":"STARLINK-3552","OBJECT_ID":"2022-017AX","EPOCH":"2025-08-07T06:21:54.895680","MEAN_MOTION":15.08836869,"ECCENTRICITY":0.0001185,"INCLINATION":53.2169,"RA_OF_ASC_NODE":211.7403,"ARG_OF_PERICENTER":69.9155,"MEAN_ANOMALY":290.1964,"EPHEMERIS_TYPE":0,"CLASSIFICATION_TYPE":"U","NORAD_CAT_ID":51813,"ELEMENT_SET_NO":999,"REV_AT_EPOCH":19171,"BSTAR":-1.582e-5,"MEAN_MOTION_DOT":-5.4e-6,"MEAN_MOTION_DDOT":0},{"OBJECT_NAME":"STARLINK-3599","OBJECT_ID":"2022-017AY","EPOCH":"2025-08-08T00:07:03.521568","MEAN_MOTION":15.08831625,"ECCENTRICITY":0.0001102,"INCLINATION":53.2164,"RA_OF_ASC_NODE":208.3909,"ARG_OF_PERICENTER":81.9177,"MEAN_ANOMALY":278.1941,"EPHEMERIS_TYPE":0,"CLASSIFICATION_TYPE":"U","NORAD_CAT_ID":51814,"ELEMENT_SET_NO":999,"REV_AT_EPOCH":19194,"BSTAR":6.8297e-6,"MEAN_MOTION_DOT":-1.79e-6,"MEAN_MOTION_DDOT":0},{"OBJECT_NAME":"STARLINK-3604","OBJECT_ID":"2022-017AZ","EPOCH":"2025-08-07T16:15:25.293312","MEAN_MOTION":15.08836932,"ECCENTRICITY":0.0001248,"INCLINATION":53.2164,"RA_OF_ASC_NODE":209.8591,"ARG_OF_PERICENTER":70.4191,"MEAN_ANOMALY":289.6936,"EPHEMERIS_TYPE":0,"CLASSIFICATION_TYPE":"U","NORAD_CAT_ID":51815,"ELEMENT_SET_NO":999,"REV_AT_EPOCH":19177,"BSTAR":2.2193e-5,"MEAN_MOTION_DOT":6.5e-7,"MEAN_MOTION_DDOT":0},{"OBJECT_NAME":"STARLINK-3603","OBJECT_ID":"2022-017BA","EPOCH":"2025-08-07T22:59:35.050848","MEAN_MOTION":15.08837367,"ECCENTRICITY":0.0001189,"INCLINATION":53.2163,"RA_OF_ASC_NODE":208.8393,"ARG_OF_PERICENTER":81.0384,"MEAN_ANOMALY":279.0743,"EPHEMERIS_TYPE":0,"CLASSIFICATION_TYPE":"U","NORAD_CAT_ID":51816,"ELEMENT_SET_NO":999,"REV_AT_EPOCH":19186,"BSTAR":2.7297e-5,"MEAN_MOTION_DOT":1.47e-6,"MEAN_MOTION_DDOT":0},{"OBJECT_NAME":"STARLINK-3542","OBJECT_ID":"2022-022A","EPOCH":"2025-08-07T10:24:21.607488","MEAN_MOTION":15.08837239,"ECCENTRICITY":0.0001259,"INCLINATION":53.2165,"RA_OF_ASC_NODE":260.956,"ARG_OF_PERICENTER":91.0454,"MEAN_ANOMALY":269.0683,"EPHEMERIS_TYPE":0,"CLASSIFICATION_TYPE":"U","NORAD_CAT_ID":51852,"ELEMENT_SET_NO":999,"REV_AT_EPOCH":19066,"BSTAR":-9.9814e-6,"MEAN_MOTION_DOT":-4.47e-6,"MEAN_MOTION_DDOT":0},{"OBJECT_NAME":"STARLINK-3541","OBJECT_ID":"2022-022C","EPOCH":"2025-08-07T10:19:03.175104","MEAN_MOTION":15.08838545,"ECCENTRICITY":0.0001164,"INCLINATION":53.2171,"RA_OF_ASC_NODE":260.9726,"ARG_OF_PERICENTER":82.3341,"MEAN_ANOMALY":277.7783,"EPHEMERIS_TYPE":0,"CLASSIFICATION_TYPE":"U","NORAD_CAT_ID":51854,"ELEMENT_SET_NO":999,"REV_AT_EPOCH":19067,"BSTAR":3.1162e-5,"MEAN_MOTION_DOT":2.08e-6,"MEAN_MOTION_DDOT":0},{"OBJECT_NAME":"STARLINK-3545","OBJECT_ID":"2022-022D","EPOCH":"2025-08-07T09:57:50.894496","MEAN_MOTION":15.08831842,"ECCENTRICITY":0.0001026,"INCLINATION":53.2171,"RA_OF_ASC_NODE":260.9625,"ARG_OF_PERICENTER":77.2219,"MEAN_ANOMALY":282.8888,"EPHEMERIS_TYPE":0,"CLASSIFICATION_TYPE":"U","NORAD_CAT_ID":51855,"ELEMENT_SET_NO":999,"REV_AT_EPOCH":19062,"BSTAR":-4.4159e-6,"MEAN_MOTION_DOT":-3.58e-6,"MEAN_MOTION_DDOT":0},{"OBJECT_NAME":"STARLINK-3568","OBJECT_ID":"2022-022E","EPOCH":"2025-08-07T10:15:08.078976","MEAN_MOTION":15.08836976,"ECCENTRICITY":0.0001028,"INCLINATION":53.217,"RA_OF_ASC_NODE":260.9952,"ARG_OF_PERICENTER":87.0764,"MEAN_ANOMALY":273.0345,"EPHEMERIS_TYPE":0,"CLASSIFICATION_TYPE":"U","NORAD_CAT_ID":51856,"ELEMENT_SET_NO":999,"REV_AT_EPOCH":19070,"BSTAR":2.2235e-5,"MEAN_MOTION_DOT":6.6e-7,"MEAN_MOTION_DDOT":0},{"OBJECT_NAME":"STARLINK-3571","OBJECT_ID":"2022-022F","EPOCH":"2025-08-08T03:28:29.913024","MEAN_MOTION":15.08829173,"ECCENTRICITY":7.03e-5,"INCLINATION":53.216,"RA_OF_ASC_NODE":257.7741,"ARG_OF_PERICENTER":83.6998,"MEAN_ANOMALY":276.4074,"EPHEMERIS_TYPE":0,"CLASSIFICATION_TYPE":"U","NORAD_CAT_ID":51857,"ELEMENT_SET_NO":999,"REV_AT_EPOCH":19078,"BSTAR":4.4107e-5,"MEAN_MOTION_DOT":4.14e-6,"MEAN_MOTION_DDOT":0},{"OBJECT_NAME":"STARLINK-3563","OBJECT_ID":"2022-022G","EPOCH":"2025-08-08T01:57:00.798336","MEAN_MOTION":15.08834374,"ECCENTRICITY":0.000116,"INCLINATION":53.2169,"RA_OF_ASC_NODE":258.0486,"ARG_OF_PERICENTER":84.114,"MEAN_ANOMALY":275.9985,"EPHEMERIS_TYPE":0,"CLASSIFICATION_TYPE":"U","NORAD_CAT_ID":51858,"ELEMENT_SET_NO":999,"REV_AT_EPOCH":19077,"BSTAR":4.9159e-5,"MEAN_MOTION_DOT":4.95e-6,"MEAN_MOTION_DDOT":0},{"OBJECT_NAME":"STARLINK-3560","OBJECT_ID":"2022-022H","EPOCH":"2025-08-07T08:51:39.730176","MEAN_MOTION":15.08843273,"ECCENTRICITY":9.77e-5,"INCLINATION":53.217,"RA_OF_ASC_NODE":251.2539,"ARG_OF_PERICENTER":80.9357,"MEAN_ANOMALY":279.1746,"EPHEMERIS_TYPE":0,"CLASSIFICATION_TYPE":"U","NORAD_CAT_ID":51859,"ELEMENT_SET_NO":999,"REV_AT_EPOCH":19080,"BSTAR":4.464e-6,"MEAN_MOTION_DOT":-2.17e-6,"MEAN_MOTION_DDOT":0},{"OBJECT_NAME":"STARLINK-3559","OBJECT_ID":"2022-022J","EPOCH":"2025-08-08T02:30:07.754688","MEAN_MOTION":15.08835198,"ECCENTRICITY":0.0001236,"INCLINATION":53.2164,"RA_OF_ASC_NODE":247.9446,"ARG_OF_PERICENTER":85.4186,"MEAN_ANOMALY":274.6948,"EPHEMERIS_TYPE":0,"CLASSIFICATION_TYPE":"U","NORAD_CAT_ID":51860,"ELEMENT_SET_NO":999,"REV_AT_EPOCH":19087,"BSTAR":1.1224e-5,"MEAN_MOTION_DOT":-1.09e-6,"MEAN_MOTION_DDOT":0},{"OBJECT_NAME":"STARLINK-3562","OBJECT_ID":"2022-022K","EPOCH":"2025-08-07T08:39:42.122880","MEAN_MOTION":15.08837443,"ECCENTRICITY":0.0001151,"INCLINATION":53.216,"RA_OF_ASC_NODE":251.2797,"ARG_OF_PERICENTER":81.9337,"MEAN_ANOMALY":278.1786,"EPHEMERIS_TYPE":0,"CLASSIFICATION_TYPE":"U","NORAD_CAT_ID":51861,"ELEMENT_SET_NO":999,"REV_AT_EPOCH":19074,"BSTAR":5.6716e-5,"MEAN_MOTION_DOT":6.15e-6,"MEAN_MOTION_DDOT":0},{"OBJECT_NAME":"STARLINK-3508","OBJECT_ID":"2022-022L","EPOCH":"2025-08-08T02:24:49.683456","MEAN_MOTION":15.08835347,"ECCENTRICITY":0.0001167,"INCLINATION":53.2165,"RA_OF_ASC_NODE":247.9615,"ARG_OF_PERICENTER":82.7359,"MEAN_ANOMALY":277.3766,"EPHEMERIS_TYPE":0,"CLASSIFICATION_TYPE":"U","NORAD_CAT_ID":51862,"ELEMENT_SET_NO":999,"REV_AT_EPOCH":19092,"BSTAR":2.8501e-5,"MEAN_MOTION_DOT":1.66e-6,"MEAN_MOTION_DDOT":0},{"OBJECT_NAME":"STARLINK-3555","OBJECT_ID":"2022-022M","EPOCH":"2025-08-07T08:29:05.203680","MEAN_MOTION":15.08843631,"ECCENTRICITY":0.000127,"INCLINATION":53.2165,"RA_OF_ASC_NODE":251.3145,"ARG_OF_PERICENTER":86.6629,"MEAN_ANOMALY":273.4508,"EPHEMERIS_TYPE":0,"CLASSIFICATION_TYPE":"U","NORAD_CAT_ID":51863,"ELEMENT_SET_NO":999,"REV_AT_EPOCH":19075,"BSTAR":3.4507e-5,"MEAN_MOTION_DOT":2.61e-6,"MEAN_MOTION_DDOT":0},{"OBJECT_NAME":"STARLINK-3548","OBJECT_ID":"2022-022N","EPOCH":"2025-08-07T08:34:22.401408","MEAN_MOTION":15.08843107,"ECCENTRICITY":0.000128,"INCLINATION":53.2161,"RA_OF_ASC_NODE":251.2192,"ARG_OF_PERICENTER":87.6116,"MEAN_ANOMALY":272.5022,"EPHEMERIS_TYPE":0,"CLASSIFICATION_TYPE":"U","NORAD_CAT_ID":51864,"ELEMENT_SET_NO":999,"REV_AT_EPOCH":19080,"BSTAR":-1.5075e-5,"MEAN_MOTION_DOT":-5.28e-6,"MEAN_MOTION_DDOT":0},{"OBJECT_NAME":"STARLINK-3503","OBJECT_ID":"2022-022P","EPOCH":"2025-08-07T09:53:52.848672","MEAN_MOTION":15.08853831,"ECCENTRICITY":0.00012669,"INCLINATION":53.2165,"RA_OF_ASC_NODE":251.0497,"ARG_OF_PERICENTER":84.0706,"MEAN_ANOMALY":276.043,"EPHEMERIS_TYPE":0,"CLASSIFICATION_TYPE":"U","NORAD_CAT_ID":51865,"ELEMENT_SET_NO":999,"REV_AT_EPOCH":19076,"BSTAR":6.3640965e-5,"MEAN_MOTION_DOT":7.25e-6,"MEAN_MOTION_DDOT":0},{"OBJECT_NAME":"STARLINK-3553","OBJECT_ID":"2022-022Q","EPOCH":"2025-08-08T01:43:47.193600","MEAN_MOTION":15.08841498,"ECCENTRICITY":0.0001184,"INCLINATION":53.216,"RA_OF_ASC_NODE":247.9451,"ARG_OF_PERICENTER":85.3107,"MEAN_ANOMALY":274.802,"EPHEMERIS_TYPE":0,"CLASSIFICATION_TYPE":"U","NORAD_CAT_ID":51866,"ELEMENT_SET_NO":999,"REV_AT_EPOCH":19086,"BSTAR":5.8534e-5,"MEAN_MOTION_DOT":6.44e-6,"MEAN_MOTION_DDOT":0}]
